     2              NAVIGATION DATA                         RINEX VERSION / TYPE
CCRINEXN V1.6.0 UX  CDDIS               16-SEP-23 13:26     PGM / RUN BY / DATE 
IGS BROADCAST EPHEMERIS FILE                                COMMENT             
    0.1863D-07  0.2235D-07 -0.1192D-06 -0.1192D-06          ION ALPHA           
    0.1208D+06  0.3277D+05 -0.1966D+06  0.1966D+06          ION BETA            
    0.000000000000D+00-0.710542735760D-14   147456     2280 DELTA-UTC: A0,A1,T,W
    18                                                      LEAP SECONDS        
                                                            END OF HEADER       
12 23  9 16 14  0  0.0-0.425412319601D-03-0.432009983342D-11 0.000000000000D+00
    0.400000000000D+02 0.570625000000D+02 0.456626163170D-08 0.248946647789D+01
    0.290945172310D-05 0.857345410623D-02 0.413879752159D-05 0.515378453445D+04
    0.568800000000D+06 0.856816768646D-07-0.165484422837D+01-0.409781932831D-07
    0.964081669368D+00 0.297906250000D+03 0.139045837605D+01-0.815355391396D-08
    0.347157317639D-09 0.100000000000D+01 0.227900000000D+04 0.000000000000D+00
    0.200000000000D+01 0.000000000000D+00-0.125728547573D-07 0.400000000000D+02
    0.561618000000D+06 0.400000000000D+01 0.000000000000D+00 0.000000000000D+00
13 23  9 16 14  0  0.0 0.573211815208D-03 0.454747350886D-11 0.000000000000D+00
    0.980000000000D+02-0.756562500000D+02 0.456269005435D-08-0.664570899417D+00
   -0.399351119995D-05 0.750905519817D-02 0.748410820961D-05 0.515366707993D+04
    0.568800000000D+06 0.931322574616D-08 0.260370572145D+01 0.132247805595D-06
    0.970448160113D+00 0.237812500000D+03 0.937149515765D+00-0.821962809479D-08
   -0.653241495845D-09 0.100000000000D+01 0.227900000000D+04 0.000000000000D+00
    0.200000000000D+01 0.000000000000D+00-0.116415321827D-07 0.980000000000D+02
    0.563917000000D+06 0.400000000000D+01 0.000000000000D+00 0.000000000000D+00
17 23  9 16 14  0  0.0 0.723753124476D-03 0.113686837722D-12 0.000000000000D+00
    0.290000000000D+02-0.720312500000D+02 0.442661295763D-08-0.297313282669D+00
   -0.400468707085D-05 0.137283977820D-01 0.715628266334D-05 0.515357839012D+04
    0.568800000000D+06-0.242143869400D-06-0.615103080895D+00 0.279396772385D-07
    0.972651364479D+00 0.250937500000D+03-0.140000763233D+01-0.831391773662D-08
   -0.319656172106D-09 0.100000000000D+01 0.227900000000D+04 0.000000000000D+00
    0.200000000000D+01 0.000000000000D+00-0.111758708954D-07 0.290000000000D+02
    0.561621000000D+06 0.400000000000D+01 0.000000000000D+00 0.000000000000D+00
18 23  9 16 14  0  0.0-0.419170595706D-03-0.125055521494D-10 0.000000000000D+00
    0.100000000000D+02 0.703125000000D+01 0.401052419729D-08-0.232708473329D+01
    0.312924385071D-06 0.372077676002D-02 0.126790255308D-04 0.515366246414D+04
    0.568800000000D+06-0.428408384323D-07 0.388277417656D+00-0.521540641785D-07
    0.974504902166D+00 0.148406250000D+03-0.310563363712D+01-0.765603319023D-08
    0.240009997380D-09 0.100000000000D+01 0.227900000000D+04 0.000000000000D+00
    0.200000000000D+01 0.000000000000D+00-0.838190317154D-08 0.266000000000D+03
    0.561618000000D+06 0.400000000000D+01 0.000000000000D+00 0.000000000000D+00
19 23  9 16 14  0  0.0 0.372292473912D-03 0.522959453519D-11 0.000000000000D+00
    0.200000000000D+02-0.802500000000D+02 0.437161066656D-08 0.179085790156D+01
   -0.419467687607D-05 0.941688916646D-02 0.697746872902D-05 0.515364533806D+04
    0.568800000000D+06 0.111758708954D-06-0.570647282618D+00 0.135973095894D-06
    0.971794066689D+00 0.251187500000D+03 0.241322976157D+01-0.795854579109D-08
   -0.468590947265D-09 0.100000000000D+01 0.227900000000D+04 0.000000000000D+00
    0.200000000000D+01 0.000000000000D+00-0.153668224812D-07 0.200000000000D+02
    0.561618000000D+06 0.400000000000D+01 0.000000000000D+00 0.000000000000D+00
20 23  9 16 14  0  0.0 0.411591026932D-03-0.193267624127D-11 0.000000000000D+00
    0.360000000000D+02 0.676250000000D+02 0.519307345521D-08-0.160281686789D+01
    0.361353158951D-05 0.408335274551D-02 0.605918467045D-05 0.515361494636D+04
    0.568800000000D+06 0.119209289551D-06 0.124590035133D+01-0.186264514923D-07
    0.949851275655D+00 0.255718750000D+03-0.284803829358D+01-0.847106713966D-08
    0.546451333320D-09 0.100000000000D+01 0.227900000000D+04 0.000000000000D+00
    0.200000000000D+01 0.000000000000D+00-0.838190317154D-08 0.360000000000D+02
    0.561618000000D+06 0.400000000000D+01 0.000000000000D+00 0.000000000000D+00
25 23  9 16 14  0  0.0 0.468051992357D-03 0.204636307899D-11 0.000000000000D+00
    0.610000000000D+02 0.662187500000D+02 0.480412868267D-08 0.226417240942D+01
    0.327453017235D-05 0.111641605618D-01 0.481866300106D-05 0.515367750168D+04
    0.568800000000D+06 0.130385160446D-07-0.173851725572D+01-0.225380063057D-06
    0.951898743615D+00 0.279812500000D+03 0.105191540690D+01-0.829213111483D-08
    0.407159816983D-09 0.100000000000D+01 0.227900000000D+04 0.000000000000D+00
    0.200000000000D+01 0.000000000000D+00 0.558793544769D-08 0.610000000000D+02
    0.561618000000D+06 0.400000000000D+01 0.000000000000D+00 0.000000000000D+00
26 23  9 16 14  0  0.0 0.228208489716D-03-0.181898940355D-11 0.000000000000D+00
    0.500000000000D+01 0.719375000000D+02 0.530129224867D-08 0.153800923564D+01
    0.382028520107D-05 0.818962324411D-02 0.490248203278D-05 0.515375326920D+04
    0.568800000000D+06-0.931322574615D-07-0.179632304605D+01 0.894069671631D-07
    0.932713746266D+00 0.271812500000D+03 0.468835258973D+00-0.868607609565D-08
    0.261439461432D-09 0.100000000000D+01 0.227900000000D+04 0.000000000000D+00
    0.200000000000D+01 0.000000000000D+00 0.698491930962D-08 0.500000000000D+01
    0.564132000000D+06 0.400000000000D+01 0.000000000000D+00 0.000000000000D+00
27 23  9 16 14  0  0.0-0.404142774642D-04-0.625277607469D-11 0.000000000000D+00
    0.280000000000D+02-0.704375000000D+02 0.459733435457D-08-0.233107335456D+00
   -0.355392694473D-05 0.116237354232D-01 0.605359673500D-05 0.515366817665D+04
    0.568800000000D+06 0.391155481339D-07-0.681575965963D+00 0.135973095894D-06
    0.965879857550D+00 0.268375000000D+03 0.741955549998D+00-0.840070706603D-08
   -0.328227957726D-09 0.100000000000D+01 0.227900000000D+04 0.000000000000D+00
    0.200000000000D+01 0.000000000000D+00 0.139698386192D-08 0.280000000000D+02
    0.561642000000D+06 0.400000000000D+01 0.000000000000D+00 0.000000000000D+00
28 23  9 16 14  0  0.0-0.106124207377D-04-0.534328137292D-11 0.000000000000D+00
    0.740000000000D+02 0.137187500000D+02 0.417517391275D-08 0.175969985015D+01
    0.605359673500D-06 0.683131045662D-03 0.120140612125D-04 0.515375540733D+04
    0.568800000000D+06 0.335276126862D-07-0.280597203885D+01-0.372529029846D-08
    0.961974065235D+00 0.150312500000D+03 0.157299531357D+01-0.785711299458D-08
   -0.542879755978D-10 0.100000000000D+01 0.227900000000D+04 0.000000000000D+00
    0.200000000000D+01 0.000000000000D+00-0.977888703346D-08 0.330000000000D+03
    0.561618000000D+06 0.400000000000D+01 0.000000000000D+00 0.000000000000D+00
30 23  9 16 14  0  0.0-0.487263314426D-03 0.341060513165D-11 0.000000000000D+00
    0.290000000000D+02 0.250312500000D+02 0.468269505304D-08 0.304324109537D+01
    0.114738941193D-05 0.658022973221D-02 0.126436352730D-04 0.515377421951D+04
    0.568800000000D+06-0.279396772385D-07-0.276555029863D+01-0.577419996262D-07
    0.935942146067D+00 0.119281250000D+03-0.254684301295D+01-0.798283251702D-08
   -0.928610108910D-11 0.100000000000D+01 0.227900000000D+04 0.000000000000D+00
    0.200000000000D+01 0.000000000000D+00 0.372529029846D-08 0.290000000000D+02
    0.564262000000D+06 0.400000000000D+01 0.000000000000D+00 0.000000000000D+00
31 23  9 16 14  0  0.0-0.223449431360D-03-0.568434188608D-12 0.000000000000D+00
    0.800000000000D+01 0.187812500000D+02 0.427196365872D-08 0.228295252957D+01
    0.763684511185D-06 0.104607702233D-01 0.123586505652D-04 0.515363505554D+04
    0.568800000000D+06-0.137835741043D-06-0.274951738357D+01-0.113621354103D-06
    0.954864258501D+00 0.142812500000D+03 0.584377656784D+00-0.783068332225D-08
   -0.382158775590D-10 0.100000000000D+01 0.227900000000D+04 0.000000000000D+00
    0.200000000000D+01 0.000000000000D+00-0.130385160446D-07 0.800000000000D+01
    0.561618000000D+06 0.400000000000D+01 0.000000000000D+00 0.000000000000D+00
32 23  9 16 14  0  0.0-0.558810308576D-03-0.602540239925D-11 0.000000000000D+00
    0.630000000000D+02-0.717500000000D+02 0.487377444084D-08 0.362920873637D+00
   -0.366009771824D-05 0.697237125132D-02 0.606290996075D-05 0.515357430840D+04
    0.568800000000D+06-0.204890966415D-07 0.245531818535D+01 0.372529029846D-07
    0.960382199705D+00 0.263187500000D+03-0.222127345588D+01-0.845963809217D-08
   -0.583595737676D-09 0.100000000000D+01 0.227900000000D+04 0.000000000000D+00
    0.200000000000D+01 0.000000000000D+00 0.465661287308D-09 0.630000000000D+02
    0.561618000000D+06 0.400000000000D+01 0.000000000000D+00 0.000000000000D+00
11 23  9 16 14 44 32.0-0.371587462723D-03-0.183035808732D-10 0.000000000000D+00
    0.390000000000D+02 0.139687500000D+02 0.423339062343D-08-0.519004824668D+00
    0.851228833199D-06 0.114709476475D-02 0.128094106913D-04 0.515360048866D+04
    0.571472000000D+06 0.558793544769D-08 0.419304267260D+00 0.167638063431D-07
    0.966070468461D+00 0.134781250000D+03-0.275185217303D+01-0.781068248913D-08
    0.259653672761D-09 0.100000000000D+01 0.227900000000D+04 0.000000000000D+00
    0.200000000000D+01 0.000000000000D+00-0.838190317154D-08 0.807000000000D+03
    0.564318000000D+06 0.400000000000D+01 0.000000000000D+00 0.000000000000D+00
